<?xml version="1.0" encoding="UTF-8"?>
<kml xmlns="http://www.opengis.net/kml/2.2" xmlns:gx="http://www.google.com/kml/ext/2.2" xmlns:kml="http://www.opengis.net/kml/2.2" xmlns:atom="http://www.w3.org/2005/Atom">
<Document>
	<name>Middle Part Circle.kml</name>
	<Style id="inline">
		<LineStyle>
			<color>ff0000ff</color>
			<width>2</width>
		</LineStyle>
	</Style>
	<Style id="inline0">
		<LineStyle>
			<color>ff0000ff</color>
			<width>2</width>
		</LineStyle>
	</Style>
	<StyleMap id="inline1">
		<Pair>
			<key>normal</key>
			<styleUrl>#inline</styleUrl>
		</Pair>
		<Pair>
			<key>highlight</key>
			<styleUrl>#inline0</styleUrl>
		</Pair>
	</StyleMap>
	<Placemark>
		<name>Middle Part Circle</name>
		<styleUrl>#inline1</styleUrl>
		<LineString>
			<tessellate>1</tessellate>
			<coordinates>
				-97.28378575053564,42.89539508956296,0 -97.28374984539798,42.89819547251169,0 -97.28767701354103,42.89819754700792,-7.081154781429788e-10 -97.2876749576654,42.89824411593769,-7.081154781429788e-10 -97.2876601736607,42.89849243118386,0 -97.28761590260146,42.89873885758971,-7.081154781429788e-10 -97.28754248107262,42.89898151966763,-7.081154781429788e-10 -97.28744046753305,42.89921857055752,0 -97.28731063807513,42.89944820608405,0 -97.28715398052717,42.89966867848983,-7.081154781429788e-10 -97.28697168694308,42.89987830973972,-7.081154781429788e-10 -97.2867651445363,42.90007550429488,-7.081154781429788e-10 -97.28653592512687,42.90025876125951,-7.081154781429788e-10 -97.28628577318179,42.90042668580728,-7.081154781429788e-10 -97.28601659253945,42.90057799980083,-7.081154781429788e-10 -97.28573043191938,42.90071155152305,0 -97.28542946932741,42.90082632444634,0 -97.28511599547519,42.90092144497238,-7.081154781429788e-10 -97.28479239634026,42.90099618908411,-7.081154781429788e-10 -97.28446113499966,42.90104998785879,0 -97.28412473287551,42.90108243180002,0 -97.28378575053567,42.90109327395603,-7.081154781429788e-10 -97.28344676819583,42.90108243180001,0 -97.28311036607167,42.90104998785878,0 -97.28277910473105,42.9009961890841,-7.081154781429788e-10 -97.28245550559613,42.90092144497235,0 -97.28214203174393,42.90082632444633,0 -97.28184106915197,42.90071155152305,-7.081154781429788e-10 -97.28155490853189,42.9005779998008,0 -97.28128572788957,42.90042668580726,-7.081154781429788e-10 -97.28103557594447,42.90025876125949,0 -97.28080635653505,42.90007550429488,-7.081154781429788e-10 -97.28059981412825,42.89987830973972,0 -97.28041752054416,42.89966867848985,0 -97.28026086299622,42.89944820608407,0 -97.2801310335383,42.89921857055754,0 -97.28002901999872,42.89898151966764,0 -97.27995559846985,42.89873885758973,0 -97.27991132741062,42.89849243118389,-7.081154781429788e-10 -97.27989654340593,42.89824411593773,0 -97.27991135861564,42.89799580169153,0 -97.27995565993176,42.89774937825528,0 -97.28002910984998,42.89750672102626,-7.081154781429788e-10 -97.28013114904886,42.89726967671729,0 -97.28026100065634,42.89704004930373,0 -97.28041767617113,42.8968195862965,0 -97.28059998299339,42.89660996544515,-7.081154781429788e-10 -97.28080653350749,42.89641278197251,0 -97.281035755647,42.89622953643774,-7.081154781429788e-10 -97.28128590486199,42.8960616233198,0 -97.28155507739703,42.8959103204088,0 -97.28184122477889,42.89577677908506,0 -97.28214216940404,42.89566201556033,0 -97.28245562110666,42.89556690314728,0 -97.28277919458228,42.89549216561647,-7.081154781429788e-10 -97.2831104275335,42.89543837169068,-7.081154781429788e-10 -97.28344679940081,42.895405930719,0 -97.28378575053564,42.89539508956296,0 
			</coordinates>
		</LineString>
		<atom:link rel="app" href="https://www.google.com/earth/about/versions/#earth-pro" title="Google Earth Pro 7.3.7.1155"></atom:link>
	</Placemark>
</Document>
</kml>
