<?xml version="1.0" encoding="UTF-8"?>
<kml xmlns="http://www.opengis.net/kml/2.2" xmlns:gx="http://www.google.com/kml/ext/2.2" xmlns:kml="http://www.opengis.net/kml/2.2" xmlns:atom="http://www.w3.org/2005/Atom">
<Document>
	<name>South East Circle.kml</name>
	<StyleMap id="inline">
		<Pair>
			<key>normal</key>
			<styleUrl>#inline0</styleUrl>
		</Pair>
		<Pair>
			<key>highlight</key>
			<styleUrl>#inline1</styleUrl>
		</Pair>
	</StyleMap>
	<Style id="inline0">
		<LineStyle>
			<color>ff0000ff</color>
			<width>2</width>
		</LineStyle>
	</Style>
	<Style id="inline1">
		<LineStyle>
			<color>ff0000ff</color>
			<width>2</width>
		</LineStyle>
	</Style>
	<Placemark>
		<name>South East Circle</name>
		<styleUrl>#inline</styleUrl>
		<LineString>
			<tessellate>1</tessellate>
			<coordinates>
				-97.28017401929031,42.89101392191814,0 -97.28046924462733,42.89102317655107,-7.081154781429788e-10 -97.28076224583739,42.89105124671899,0 -97.28105079326581,42.89109791881643,0 -97.28133269113776,42.89116283768227,-7.081154781429788e-10 -97.28160579426209,42.89124550930141,0 -97.28186802435076,42.89134530456289,0 -97.28211738583001,42.8914614640456,-7.081154781429788e-10 -97.28235198102317,42.89159310379542,-7.081154781429788e-10 -97.28257002458967,42.89173922205008,-7.081154781429788e-10 -97.28276985711041,42.89189870686012,0 -97.28294995771613,42.89207034454856,0 -97.28310895566294,42.89225282894474,0 -97.28324564076662,42.89244477132212,0 -97.28335897261618,42.89264471096455,0 -97.28344808849694,42.89285112628088,-7.081154781429788e-10 -97.28351230996188,42.89306244638286,0 -97.28355114800191,42.89327706303899,0 -97.28356430677491,42.89349334291277,-7.081154781429788e-10 -97.28355168586515,42.89370963999254,0 -97.28351338105588,42.89392430811851,0 -97.28344968360832,42.89413571351112,-7.081154781429788e-10 -97.28336107805309,42.89434224720598,0 -97.28324823851008,42.89454233730026,0 -97.28311202356461,42.89473446091758,-7.081154781429788e-10 -97.28295346973913,42.89491715580012,-7.081154781429788e-10 -97.28277378360914,42.89508903143975,-7.081154781429788e-10 -97.28257433262411,42.89524877966339,0 -97.28235663470235,42.89539518459191,0 -97.28212234667961,42.89552713189661,0 -97.28187325169877,42.89564361728307,-7.081154781429788e-10 -97.28161124563692,42.89574375413726,-7.081154781429788e-10 -97.28133832267319,42.89582678027597,-7.081154781429788e-10 -97.28105656010716,42.8958920637499,-7.081154781429788e-10 -97.28076810254342,42.89593910765545,-7.081154781429788e-10 -97.28047514556324,42.89596755391803,0 -97.28017991900741,42.8959771860186,-7.081154781429788e-10 -97.27988466999774,42.89596793064221,0 -97.27959164582711,42.89593985823635,-7.081154781429788e-10 -97.27930307684787,42.89589318247447,0 -97.27902115948959,42.89582825862902,0 -97.27874803953553,42.89574558086641,0 -97.27848579578512,42.89564577848427,0 -97.27823642422719,42.89552961112009,-7.081154781429788e-10 -97.27800182284466,42.89539796296742,-7.081154781429788e-10 -97.27778377716614,42.8952518360439,-7.081154781429788e-10 -97.27758394667497,42.89509234256233,0 -97.27740385217867,42.8949206964632,-7.081154781429788e-10 -97.27724486423551,42.89473820417272,0 -97.27710819272581,42.89454625465731,-7.081154781429788e-10 -97.27699487764741,42.89434630884997,-7.081154781429788e-10 -97.27690578120553,42.89413988852921,0 -97.27684158125645,42.89392856473531,-7.081154781429788e-10 -97.27680276615555,42.89371394581195,0 -97.27678963104799,42.89349766516454,-7.081154781429788e-10 -97.27680227563036,42.89328136882821,0 -97.27684060340019,42.89306670294017,0 -97.27690432239859,42.89285530121201,0 -97.27699294744014,42.89264877249676,-7.081154781429788e-10 -97.27710580381289,42.89244868854593,0 -97.27724203242008,42.89225657204926,-7.081154781429788e-10 -97.27740059632424,42.89207388504821,-7.081154781429788e-10 -97.27758028864359,42.89190201781141,0 -97.27777974174063,42.89174227825664,0 -97.27799743763283,42.89159588199965,0 -97.27823171954614,42.89146394310563,0 -97.27848080452333,42.89134746561345,0 -97.27874279699124,42.8912473358973,-7.081154781429788e-10 -97.27901570318376,42.8911643159235,-7.081154781429788e-10 -97.27929744631095,42.891099037454,-7.081154781429788e-10 -97.27958588235882,42.89105199724037,0 -97.27987881639983,42.891023553245,0 -97.28017401929031,42.89101392191814,0 
			</coordinates>
		</LineString>
		<atom:link rel="app" href="https://www.google.com/earth/about/versions/#earth-pro" title="Google Earth Pro 7.3.7.1155"></atom:link>
	</Placemark>
</Document>
</kml>
